CTC1_L_00649007-03
1 38786U 24387NN  26037.47810185  .00000000  00000+0  00000-0 0  9997
2 38786  55.0000 180.0000 0000000   0.0000 144.0000  3.48458099    13
CTC1_L_00649007-04
1 38787U 23777JV  26037.47810185  .00000000  00000+0  00000-0 0  9990
2 38787  55.0000 180.0000 0000000   0.0000 180.0000  3.48458099    14
CTC1_L_00649007-05
1 38788U 23843MI  26037.47810185  .00000000  00000+0  00000-0 0  9995
2 38788  55.0000 180.0000 0000000   0.0000 216.0000  3.48458099    15
CTC1_L_00649007-06
1 38789U 22537HP  26037.47810185  .00000000  00000+0  00000-0 0  9995
2 38789  55.0000 180.0000 0000000   0.0000 252.0000  3.48458099    16
CTC1_L_00649007-07
1 38790U 22966TB  26037.47810185  .00000000  00000+0  00000-0 0  9993
2 38790  55.0000 180.0000 0000000   0.0000 288.0000  3.48458099    17
CTC1_L_00649007-08
1 38791U 24030KH  26037.47810185  .00000000  00000+0  00000-0 0  9998
2 38791  55.0000 180.0000 0000000   0.0000 324.0000  3.48458099    19
CTC1_L_00649007-09
1 38792U 22019RV  26037.47810185  .00000000  00000+0  00000-0 0  9994
2 38792  55.0000 180.0000 0000000   0.0000   0.0000  3.48458099    11
CTC1_L_00649007-10
1 38793U 26743XW  26037.47810185  .00000000  00000+0  00000-0 0  9993
2 38793  55.0000 180.0000 0000000   0.0000  36.0000  3.48458099    11
CTC1_L_00649008-01
1 38794U 22163MJ  26037.47810185  .00000000  00000+0  00000-0 0  9996
2 38794  55.0000 210.0000 0000000   0.0000  84.0000  3.48458099    19
CTC1_L_00649008-02
1 38795U 24763IZ  26037.47810185  .00000000  00000+0  00000-0 0  9995
2 38795  55.0000 210.0000 0000000   0.0000 120.0000  3.48458099    11
CTC1_L_00649008-03
1 38796U 26498CL  26037.47810185  .00000000  00000+0  00000-0 0  9993
2 38796  55.0000 210.0000 0000000   0.0000 156.0000  3.48458099    11
CTC1_L_00649008-04
1 38797U 26157OJ  26037.47810185  .00000000  00000+0  00000-0 0  9996
2 38797  55.0000 210.0000 0000000   0.0000 192.0000  3.48458099    12
CTC1_L_00649008-05
1 38798U 24062CW  26037.47810185  .00000000  00000+0  00000-0 0  9990
2 38798  55.0000 210.0000 0000000   0.0000 228.0000  3.48458099    13
CTC1_L_00649008-06
1 38799U 22141WS  26037.47810185  .00000000  00000+0  00000-0 0  9997
2 38799  55.0000 210.0000 0000000   0.0000 264.0000  3.48458099    14
CTC1_L_00649008-07
1 38800U 26813CY  26037.47810185  .00000000  00000+0  00000-0 0  9990
2 38800  55.0000 210.0000 0000000   0.0000 300.0000  3.48458099    18
CTC1_L_00649008-08
1 38801U 25421SR  26037.47810185  .00000000  00000+0  00000-0 0  9995
2 38801  55.0000 210.0000 0000000   0.0000 336.0000  3.48458099    18
CTC1_L_00649008-09
1 38802U 22485TC  26037.47810185  .00000000  00000+0  00000-0 0  9993
2 38802  55.0000 210.0000 0000000   0.0000  12.0000  3.48458099    10
CTC1_L_00649008-10
1 38803U 25484XQ  26037.47810185  .00000000  00000+0  00000-0 0  9996
2 38803  55.0000 210.0000 0000000   0.0000  48.0000  3.48458099    10
CTC1_L_00649009-01
1 38804U 23435VJ  26037.47810185  .00000000  00000+0  00000-0 0  9991
2 38804  55.0000 240.0000 0000000   0.0000  96.0000  3.48458099    17
CTC1_L_00649009-02
1 38805U 24988EY  26037.47810185  .00000000  00000+0  00000-0 0  9996
2 38805  55.0000 240.0000 0000000   0.0000 132.0000  3.48458099    19
CTC1_L_00649009-03
1 38806U 25850KN  26037.47810185  .00000000  00000+0  00000-0 0  9996
2 38806  55.0000 240.0000 0000000   0.0000 168.0000  3.48458099    19
CTC1_L_00649009-04
1 38807U 22543VR  26037.47810185  .00000000  00000+0  00000-0 0  9993
2 38807  55.0000 240.0000 0000000   0.0000 204.0000  3.48458099    11
CTC1_L_00649009-05
1 38808U 26750JV  26037.47810185  .00000000  00000+0  00000-0 0  9998
2 38808  55.0000 240.0000 0000000   0.0000 240.0000  3.48458099    12
CTC1_L_00649009-06
1 38809U 25742OQ  26037.47810185  .00000000  00000+0  00000-0 0  9999
2 38809  55.0000 240.0000 0000000   0.0000 276.0000  3.48458099    12
CTC1_L_00649009-07
1 38810U 26238LT  26037.47810185  .00000000  00000+0  00000-0 0  9992
2 38810  55.0000 240.0000 0000000   0.0000 312.0000  3.48458099    15
CTC1_L_00649009-08
1 38811U 23842CW  26037.47810185  .00000000  00000+0  00000-0 0  9991
2 38811  55.0000 240.0000 0000000   0.0000 348.0000  3.48458099    15
CTC1_L_00649009-09
1 38812U 26788OU  26037.47810185  .00000000  00000+0  00000-0 0  9994
2 38812  55.0000 240.0000 0000000   0.0000  24.0000  3.48458099    17
CTC1_L_00649009-10
1 38813U 24115QU  26037.47810185  .00000000  00000+0  00000-0 0  9997
2 38813  55.0000 240.0000 0000000   0.0000  60.0000  3.48458099    18
CTC1_L_00649010-01
1 38814U 23373LD  26037.47810185  .00000000  00000+0  00000-0 0  9993
2 38814  55.0000 270.0000 0000000   0.0000 108.0000  3.48458099    15
CTC1_L_00649010-02
1 38815U 25925FM  26037.47810185  .00000000  00000+0  00000-0 0  9999
2 38815  55.0000 270.0000 0000000   0.0000 144.0000  3.48458099    16
CTC1_L_00649010-03
1 38816U 24489SF  26037.47810185  .00000000  00000+0  00000-0 0  9994
2 38816  55.0000 270.0000 0000000   0.0000 180.0000  3.48458099    17
CTC1_L_00649010-04
1 38817U 26310G   26037.47810185  .00000000  00000+0  00000-0 0  9990
2 38817  55.0000 270.0000 0000000   0.0000 216.0000  3.48458099    18
CTC1_L_00649010-05
1 38818U 22256CS  26037.47810185  .00000000  00000+0  00000-0 0  9996
2 38818  55.0000 270.0000 0000000   0.0000 252.0000  3.48458099    19
CTC1_L_00649010-06
1 38819U 22831HJ  26037.47810185  .00000000  00000+0  00000-0 0  9996
2 38819  55.0000 270.0000 0000000   0.0000 288.0000  3.48458099    19
CTC1_L_00649010-07
1 38820U 25614JU  26037.47810185  .00000000  00000+0  00000-0 0  9990
2 38820  55.0000 270.0000 0000000   0.0000 324.0000  3.48458099    12
CTC1_L_00649010-08
1 38821U 23686UJ  26037.47810185  .00000000  00000+0  00000-0 0  9998
2 38821  55.0000 270.0000 0000000   0.0000   0.0000  3.48458099    14
CTC1_L_00649010-09
1 38822U 24387SO  26037.47810185  .00000000  00000+0  00000-0 0  9998
2 38822  55.0000 270.0000 0000000   0.0000  36.0000  3.48458099    14
CTC1_L_00649010-10
1 38823U 23063LO  26037.47810185  .00000000  00000+0  00000-0 0  9999
2 38823  55.0000 270.0000 0000000   0.0000  72.0000  3.48458099    15
CTC1_L_00649011-01
1 38824U 25763DT  26037.47810185  .00000000  00000+0  00000-0 0  9999
2 38824  55.0000 300.0000 0000000   0.0000 120.0000  3.48458099    14
CTC1_L_00649011-02
1 38825U 25357WK  26037.47810185  .00000000  00000+0  00000-0 0  9999
2 38825  55.0000 300.0000 0000000   0.0000 156.0000  3.48458099    14
CTC1_L_00649011-03
1 38826U 23520AK  26037.47810185  .00000000  00000+0  00000-0 0  9990
2 38826  55.0000 300.0000 0000000   0.0000 192.0000  3.48458099    15
CTC1_L_00649011-04
1 38827U 26168QR  26037.47810185  .00000000  00000+0  00000-0 0  9992
2 38827  55.0000 300.0000 0000000   0.0000 228.0000  3.48458099    16
CTC1_L_00649011-05
1 38828U 26109WC  26037.47810185  .00000000  00000+0  00000-0 0  9998
2 38828  55.0000 300.0000 0000000   0.0000 264.0000  3.48458099    17
CTC1_L_00649011-06
1 38829U 24429DX  26037.47810185  .00000000  00000+0  00000-0 0  9992
2 38829  55.0000 300.0000 0000000   0.0000 300.0000  3.48458099    19
CTC1_L_00649011-07
1 38830U 25312ZF  26037.47810185  .00000000  00000+0  00000-0 0  9996
2 38830  55.0000 300.0000 0000000   0.0000 336.0000  3.48458099    10
CTC1_L_00649011-08
1 38831U 25799OK  26037.47810185  .00000000  00000+0  00000-0 0  9996
2 38831  55.0000 300.0000 0000000   0.0000  12.0000  3.48458099    12
CTC1_L_00649011-09
1 38832U 22214BQ  26037.47810185  .00000000  00000+0  00000-0 0  9996
2 38832  55.0000 300.0000 0000000   0.0000  48.0000  3.48458099    12
CTC1_L_00649011-10
1 38833U 25795VV  26037.47810185  .00000000  00000+0  00000-0 0  9994
2 38833  55.0000 300.0000 0000000   0.0000  84.0000  3.48458099    13
CTC1_L_00649012-01
1 38834U 22458BY  26037.47810185  .00000000  00000+0  00000-0 0  9998
2 38834  55.0000 330.0000 0000000   0.0000 132.0000  3.48458099    11
CTC1_L_00649012-02
1 38835U 23526XX  26037.47810185  .00000000  00000+0  00000-0 0  9996
2 38835  55.0000 330.0000 0000000   0.0000 168.0000  3.48458099    11
CTC1_L_00649012-03
1 38836U 22668HR  26037.47810185  .00000000  00000+0  00000-0 0  9993
2 38836  55.0000 330.0000 0000000   0.0000 204.0000  3.48458099    13
CTC1_L_00649012-04
1 38837U 24701DM  26037.47810185  .00000000  00000+0  00000-0 0  9994
2 38837  55.0000 330.0000 0000000   0.0000 240.0000  3.48458099    14
CTC1_L_00649012-05
1 38838U 26163VF  26037.47810185  .00000000  00000+0  00000-0 0  9999
2 38838  55.0000 330.0000 0000000   0.0000 276.0000  3.48458099    14
CTC1_L_00649012-06
1 38839U 24597KE  26037.47810185  .00000000  00000+0  00000-0 0  9999
2 38839  55.0000 330.0000 0000000   0.0000 312.0000  3.48458099    16
CTC1_L_00649012-07
1 38840U 25458RF  26037.47810185  .00000000  00000+0  00000-0 0  9998
2 38840  55.0000 330.0000 0000000   0.0000 348.0000  3.48458099    17
CTC1_L_00649012-08
1 38841U 25140PU  26037.47810185  .00000000  00000+0  00000-0 0  9997
2 38841  55.0000 330.0000 0000000   0.0000  24.0000  3.48458099    19
CTC1_L_00649012-09
1 38842U 23456RD  26037.47810185  .00000000  00000+0  00000-0 0  9996
2 38842  55.0000 330.0000 0000000   0.0000  60.0000  3.48458099    10
CTC1_L_00649012-10
1 38843U 26430BY  26037.47810185  .00000000  00000+0  00000-0 0  9992
2 38843  55.0000 330.0000 0000000   0.0000  96.0000  3.48458099    10
